start=new Date('2022-01-21T00:00:00.000Z').valueOf();
sats=[{"EPHEMERIS_TYPE":"0","OBJECT_NAME":"STARLINK-2631","REF_FRAME":"TEME","MEAN_ANOMALY":"298.1912","ELEMENT_SET_NO":"999","MEAN_MOTION_DDOT":"0.0000000000000","OBJECT_ID":"2021-038P","EPOCH":"2022-01-20T10:48:48.950784","DECAY_DATE":null,"ECCENTRICITY":"0.00016870","NORAD_CAT_ID":"48366","APOAPSIS":"548.385","GP_ID":"194261147","BSTAR":"0.00027213000000","MEAN_MOTION_DOT":"0.00003774","TLE_LINE1":"1 48366U 21038P   22020.45056656  .00003774  00000-0  27213-3 0  9993","MEAN_MOTION":"15.06398926","PERIAPSIS":"546.049","INCLINATION":"53.0557","SITE":"AFETR","TLE_LINE2":"2 48366  53.0557 286.8500 0001687  61.9247 298.1912 15.06398926 39681","MEAN_ELEMENT_THEORY":"SGP4","CLASSIFICATION_TYPE":"U","TIME_SYSTEM":"UTC","PERIOD":"95.592","COUNTRY_CODE":"US","SEMIMAJOR_AXIS":"6925.352","FILE":"3278533","REV_AT_EPOCH":"3968","RA_OF_ASC_NODE":"286.8500","OBJECT_TYPE":"PAYLOAD","CENTER_NAME":"EARTH","RCS_SIZE":"LARGE","ARG_OF_PERICENTER":"61.9247","LAUNCH_DATE":"2021-05-04"},{"DECAY_DATE":null,"EPOCH":"2022-01-20T10:43:30.030240","NORAD_CAT_ID":"48367","ECCENTRICITY":"0.00016240","APOAPSIS":"548.354","EPHEMERIS_TYPE":"0","OBJECT_NAME":"STARLINK-2643","MEAN_ANOMALY":"297.6830","REF_FRAME":"TEME","ELEMENT_SET_NO":"999","OBJECT_ID":"2021-038Q","MEAN_MOTION_DDOT":"0.0000000000000","PERIOD":"95.592","TIME_SYSTEM":"UTC","COUNTRY_CODE":"US","SEMIMAJOR_AXIS":"6925.364","REV_AT_EPOCH":"3968","FILE":"3278533","RA_OF_ASC_NODE":"286.8818","OBJECT_TYPE":"PAYLOAD","CENTER_NAME":"EARTH","LAUNCH_DATE":"2021-05-04","ARG_OF_PERICENTER":"62.4323","RCS_SIZE":"LARGE","BSTAR":"0.00014449000000","GP_ID":"194261399","MEAN_MOTION_DOT":"0.00001871","TLE_LINE1":"1 48367U 21038Q   22020.44687535  .00001871  00000-0  14449-3 0  9992","MEAN_MOTION":"15.06394901","INCLINATION":"53.0553","SITE":"AFETR","PERIAPSIS":"546.105","TLE_LINE2":"2 48367  53.0553 286.8818 0001624  62.4323 297.6830 15.06394901 39684","CLASSIFICATION_TYPE":"U","MEAN_ELEMENT_THEORY":"SGP4"},{"APOAPSIS":"548.348","DECAY_DATE":null,"EPOCH":"2022-01-20T11:08:41.552448","NORAD_CAT_ID":"48368","ECCENTRICITY":"0.00016760","EPHEMERIS_TYPE":"0","OBJECT_NAME":"STARLINK-2623","ELEMENT_SET_NO":"999","OBJECT_ID":"2021-038R","MEAN_MOTION_DDOT":"0.0000000000000","MEAN_ANOMALY":"296.1020","REF_FRAME":"TEME","COUNTRY_CODE":"US","SEMIMAJOR_AXIS":"6925.322","PERIOD":"95.592","TIME_SYSTEM":"UTC","CENTER_NAME":"EARTH","LAUNCH_DATE":"2021-05-04","RCS_SIZE":"LARGE","ARG_OF_PERICENTER":"64.0142","REV_AT_EPOCH":"4028","FILE":"3278558","OBJECT_TYPE":"PAYLOAD","RA_OF_ASC_NODE":"286.7843","MEAN_MOTION_DOT":"0.00006304","GP_ID":"194265107","BSTAR":"0.00044163000000","SITE":"AFETR","INCLINATION":"53.0542","PERIAPSIS":"546.027","CLASSIFICATION_TYPE":"U","TLE_LINE2":"2 48368  53.0542 286.7843 0001676  64.0142 296.1020 15.06408522 40282","MEAN_ELEMENT_THEORY":"SGP4","TLE_LINE1":"1 48368U 21038R   22020.46436982  .00006304  00000-0  44163-3 0  9995","MEAN_MOTION":"15.06408522"},{"MEAN_MOTION_DOT":"0.00001878","BSTAR":"0.00014493000000","GP_ID":"194259892","TLE_LINE2":"2 48369  53.0544 286.8780 0001637  60.9608 299.1545 15.06395095 39682","CLASSIFICATION_TYPE":"U","MEAN_ELEMENT_THEORY":"SGP4","PERIAPSIS":"546.095","INCLINATION":"53.0544","SITE":"AFETR","MEAN_MOTION":"15.06395095","TLE_LINE1":"1 48369U 21038S   22020.44318935  .00001878  00000-0  14493-3 0  9995","SEMIMAJOR_AXIS":"6925.364","COUNTRY_CODE":"US","TIME_SYSTEM":"UTC","PERIOD":"95.592","RCS_SIZE":"LARGE","ARG_OF_PERICENTER":"60.9608","LAUNCH_DATE":"2021-05-04","CENTER_NAME":"EARTH","RA_OF_ASC_NODE":"286.8780","OBJECT_TYPE":"PAYLOAD","FILE":"3278533","REV_AT_EPOCH":"3968","OBJECT_NAME":"STARLINK-2641","EPHEMERIS_TYPE":"0","MEAN_MOTION_DDOT":"0.0000000000000","OBJECT_ID":"2021-038S","ELEMENT_SET_NO":"999","REF_FRAME":"TEME","MEAN_ANOMALY":"299.1545","APOAPSIS":"548.362","ECCENTRICITY":"0.00016370","NORAD_CAT_ID":"48369","EPOCH":"2022-01-20T10:38:11.559840","DECAY_DATE":null},{"MEAN_MOTION_DOT":"0.00007372","GP_ID":"194267221","BSTAR":"0.00051320000000","CLASSIFICATION_TYPE":"U","TLE_LINE2":"2 48370  53.0548 286.9013 0001770  64.7111 295.4061 15.06407987 40270","MEAN_ELEMENT_THEORY":"SGP4","INCLINATION":"53.0548","SITE":"AFETR","PERIAPSIS":"545.963","MEAN_MOTION":"15.06407987","TLE_LINE1":"1 48370U 21038T   22020.43952168  .00007372  00000-0  51320-3 0  9993","SEMIMAJOR_AXIS":"6925.324","COUNTRY_CODE":"US","PERIOD":"95.592","TIME_SYSTEM":"UTC","LAUNCH_DATE":"2021-05-04","RCS_SIZE":"LARGE","ARG_OF_PERICENTER":"64.7111","CENTER_NAME":"EARTH","OBJECT_TYPE":"PAYLOAD","RA_OF_ASC_NODE":"286.9013","REV_AT_EPOCH":"4027","FILE":"3278641","OBJECT_NAME":"STARLINK-2621","EPHEMERIS_TYPE":"0","OBJECT_ID":"2021-038T","MEAN_MOTION_DDOT":"0.0000000000000","ELEMENT_SET_NO":"999","MEAN_ANOMALY":"295.4061","REF_FRAME":"TEME","APOAPSIS":"548.415","NORAD_CAT_ID":"48370","ECCENTRICITY":"0.00017700","DECAY_DATE":null,"EPOCH":"2022-01-20T10:32:54.673152"},{"CENTER_NAME":"EARTH","LAUNCH_DATE":"2021-05-04","ARG_OF_PERICENTER":"60.8184","RCS_SIZE":"LARGE","REV_AT_EPOCH":"4027","FILE":"3278641","OBJECT_TYPE":"PAYLOAD","RA_OF_ASC_NODE":"286.9311","COUNTRY_CODE":"US","SEMIMAJOR_AXIS":"6925.338","PERIOD":"95.592","TIME_SYSTEM":"UTC","INCLINATION":"53.0555","SITE":"AFETR","PERIAPSIS":"546.008","TLE_LINE2":"2 48371  53.0555 286.9311 0001726  60.8184 299.2977 15.06403321 40274","MEAN_ELEMENT_THEORY":"SGP4","CLASSIFICATION_TYPE":"U","TLE_LINE1":"1 48371U 21038U   22020.43582284  .00004530  00000-0  32276-3 0  9994","MEAN_MOTION":"15.06403321","MEAN_MOTION_DOT":"0.00004530","GP_ID":"194267215","BSTAR":"0.00032276000000","APOAPSIS":"548.399","DECAY_DATE":null,"EPOCH":"2022-01-20T10:27:35.093376","NORAD_CAT_ID":"48371","ECCENTRICITY":"0.00017260","ELEMENT_SET_NO":"999","OBJECT_ID":"2021-038U","MEAN_MOTION_DDOT":"0.0000000000000","MEAN_ANOMALY":"299.2977","REF_FRAME":"TEME","EPHEMERIS_TYPE":"0","OBJECT_NAME":"STARLINK-2589"},{"MEAN_MOTION":"15.06393423","TLE_LINE1":"1 48372U 21038V   22020.43213499  .00002023  00000-0  15472-3 0  9998","CLASSIFICATION_TYPE":"U","TLE_LINE2":"2 48372  53.0566 286.9438 0001631  55.8101 304.3042 15.06393423 39680","MEAN_ELEMENT_THEORY":"SGP4","INCLINATION":"53.0566","SITE":"AFETR","PERIAPSIS":"546.104","GP_ID":"194260147","BSTAR":"0.00015472000000","MEAN_MOTION_DOT":"0.00002023","OBJECT_TYPE":"PAYLOAD","RA_OF_ASC_NODE":"286.9438","REV_AT_EPOCH":"3968","FILE":"3278533","LAUNCH_DATE":"2021-05-04","ARG_OF_PERICENTER":"55.8101","RCS_SIZE":"LARGE","CENTER_NAME":"EARTH","PERIOD":"95.593","TIME_SYSTEM":"UTC","SEMIMAJOR_AXIS":"6925.369","COUNTRY_CODE":"US","MEAN_ANOMALY":"304.3042","REF_FRAME":"TEME","OBJECT_ID":"2021-038V","MEAN_MOTION_DDOT":"0.0000000000000","ELEMENT_SET_NO":"999","OBJECT_NAME":"STARLINK-2572","EPHEMERIS_TYPE":"0","NORAD_CAT_ID":"48372","ECCENTRICITY":"0.00016310","DECAY_DATE":null,"EPOCH":"2022-01-20T10:22:16.463136","APOAPSIS":"548.363"},{"OBJECT_TYPE":"PAYLOAD","RA_OF_ASC_NODE":"286.9704","FILE":"3278533","REV_AT_EPOCH":"3968","ARG_OF_PERICENTER":"67.8872","RCS_SIZE":"LARGE","LAUNCH_DATE":"2021-05-04","CENTER_NAME":"EARTH","TIME_SYSTEM":"UTC","PERIOD":"95.591","SEMIMAJOR_AXIS":"6925.286","COUNTRY_CODE":"US","MEAN_MOTION":"15.06420554","TLE_LINE1":"1 48373U 21038W   22020.42844578  .00006264  00000-0  43879-3 0  9999","TLE_LINE2":"2 48373  53.0546 286.9704 0001670  67.8872 292.2294 15.06420554 39686","MEAN_ELEMENT_THEORY":"SGP4","CLASSIFICATION_TYPE":"U","PERIAPSIS":"545.994","SITE":"AFETR","INCLINATION":"53.0546","GP_ID":"194260393","BSTAR":"0.00043879000000","MEAN_MOTION_DOT":"0.00006264","ECCENTRICITY":"0.00016700","NORAD_CAT_ID":"48373","EPOCH":"2022-01-20T10:16:57.715392","DECAY_DATE":null,"APOAPSIS":"548.307","REF_FRAME":"TEME","MEAN_ANOMALY":"292.2294","MEAN_MOTION_DDOT":"0.0000000000000","OBJECT_ID":"2021-038W","ELEMENT_SET_NO":"999","OBJECT_NAME":"STARLINK-2609","EPHEMERIS_TYPE":"0"},{"CENTER_NAME":"EARTH","LAUNCH_DATE":"2021-05-04","ARG_OF_PERICENTER":"58.4100","RCS_SIZE":"LARGE","REV_AT_EPOCH":"3968","FILE":"3278533","RA_OF_ASC_NODE":"286.9733","OBJECT_TYPE":"PAYLOAD","COUNTRY_CODE":"US","SEMIMAJOR_AXIS":"6925.357","PERIOD":"95.592","TIME_SYSTEM":"UTC","SITE":"AFETR","INCLINATION":"53.0565","PERIAPSIS":"545.972","MEAN_ELEMENT_THEORY":"SGP4","TLE_LINE2":"2 48374  53.0565 286.9733 0001805  58.4100 301.7065 15.06397230 39686","CLASSIFICATION_TYPE":"U","TLE_LINE1":"1 48374U 21038X   22020.42476832  .00004282  00000-0  30618-3 0  9999","MEAN_MOTION":"15.06397230","MEAN_MOTION_DOT":"0.00004282","GP_ID":"194261148","BSTAR":"0.00030618000000","APOAPSIS":"548.472","DECAY_DATE":null,"EPOCH":"2022-01-20T10:11:39.982848","NORAD_CAT_ID":"48374","ECCENTRICITY":"0.00018050","ELEMENT_SET_NO":"999","OBJECT_ID":"2021-038X","MEAN_MOTION_DDOT":"0.0000000000000","MEAN_ANOMALY":"301.7065","REF_FRAME":"TEME","EPHEMERIS_TYPE":"0","OBJECT_NAME":"STARLINK-2604"},{"PERIOD":"95.592","TIME_SYSTEM":"UTC","SEMIMAJOR_AXIS":"6925.342","COUNTRY_CODE":"US","RA_OF_ASC_NODE":"288.1870","OBJECT_TYPE":"PAYLOAD","REV_AT_EPOCH":"3964","FILE":"3278533","LAUNCH_DATE":"2021-05-04","RCS_SIZE":"LARGE","ARG_OF_PERICENTER":"64.4157","CENTER_NAME":"EARTH","BSTAR":"0.00022217000000","GP_ID":"194261400","MEAN_MOTION_DOT":"0.00003029","MEAN_MOTION":"15.06402251","TLE_LINE1":"1 48375U 21038Y   22020.15568855  .00003029  00000-0  22217-3 0  9991","MEAN_ELEMENT_THEORY":"SGP4","TLE_LINE2":"2 48375  53.0543 288.1870 0001635  64.4157 295.7001 15.06402251 39647","CLASSIFICATION_TYPE":"U","INCLINATION":"53.0543","SITE":"AFETR","PERIAPSIS":"546.074","NORAD_CAT_ID":"48375","ECCENTRICITY":"0.00016350","DECAY_DATE":null,"EPOCH":"2022-01-20T03:44:11.490720","APOAPSIS":"548.339","OBJECT_NAME":"STARLINK-2603","EPHEMERIS_TYPE":"0","MEAN_ANOMALY":"295.7001","REF_FRAME":"TEME","OBJECT_ID":"2021-038Y","MEAN_MOTION_DDOT":"0.0000000000000","ELEMENT_SET_NO":"999"}];
